[{"OBJECT_NAME":"STARLINK-5373","OBJECT_ID":"2023-015AT","EPOCH":"2026-03-09T22:00:01.999584","MEAN_MOTION":15.1336627,"ECCENTRICITY":0.0001701,"INCLINATION":42.9999,"RA_OF_ASC_NODE":337.3893,"ARG_OF_PERICENTER":260.8255,"MEAN_ANOMALY":48.0561,"EPHEMERIS_TYPE":0,"CLASSIFICATION_TYPE":"U","NORAD_CAT_ID":55490,"ELEMENT_SET_NO":999,"REV_AT_EPOCH":572,"BSTAR":0.06585946,"MEAN_MOTION_DOT":0.01296118,"MEAN_MOTION_DDOT":0},{"OBJECT_NAME":"COSMOS 252 DEB","OBJECT_ID":"1968-097B","EPOCH":"2026-03-09T10:29:22.750368","MEAN_MOTION":14.64880357,"ECCENTRICITY":0.02642735,"INCLINATION":62.2999,"RA_OF_ASC_NODE":172.6059,"ARG_OF_PERICENTER":317.7901,"MEAN_ANOMALY":40.309,"EPHEMERIS_TYPE":0,"CLASSIFICATION_TYPE":"U","NORAD_CAT_ID":3549,"ELEMENT_SET_NO":999,"REV_AT_EPOCH":85541,"BSTAR":0.00099258147,"MEAN_MOTION_DOT":8.753e-5,"MEAN_MOTION_DDOT":0}]
